IRIDIUM 126             
1 42809U 17039G   24186.04461198  .00000756  00000+0  26287-3 0  9992
2 42809  86.3969 291.6520 0002088 100.2087 259.9345 14.34214655367746
IRIDIUM 124             
1 42810U 17039H   24186.53945565  .00000513  00000+0  14645-3 0  9999
2 42810  86.4493 228.1774 0002677  91.1459 269.0048 14.43284905372329
IRIDIUM 128             
1 42811U 17039J   24185.89581846  .00000085  00000+0  23396-4 0  9994
2 42811  86.3978 323.2444 0002303  99.0594 261.0862 14.34214248367740
IRIDIUM 121             
1 42812U 17039K   24185.78457237  .00000018  00000+0 -72732-6 0  9996
2 42812  86.3967 291.7837 0002318  95.0382 265.1079 14.34215167367578
IRIDIUM 133             
1 42955U 17061A   24185.92752720  .00000407  00000+0  13809-3 0  9998
2 42955  86.3980 323.3314 0002090  96.4280 263.7153 14.34220407352543
IRIDIUM 100             
1 42956U 17061B   24185.92118975  .00000056  00000+0  13071-4 0  9999
2 42956  86.3977 323.2692 0002097  94.7374 265.4061 14.34216597352542
IRIDIUM 122             
1 42957U 17061C   24185.88947455  .00000412  00000+0  14000-3 0  9996
2 42957  86.3978 323.2809 0002103  97.0040 263.1395 14.34218635352548
IRIDIUM 129             
1 42958U 17061D   24186.47298836  .00000394  00000+0  13356-3 0  9997
2 42958  86.3984 323.0972 0001793  95.8087 264.3313 14.34214321352648
